M.P.E.C. 2022-B34                              Issued 2022 January 25, 22:04 UT

     The Minor Planet Electronic Circulars contain information on unusual
         minor planets and routine data on comets.  They are published
    on behalf of Division F of the International Astronomical Union by the
          Minor Planet Center, Smithsonian Astrophysical Observatory,
                          Cambridge, MA 02138, U.S.A.

             Prepared using the Tamkin Foundation Computer Network

                              MPC@CFA.HARVARD.EDU
            URL https://www.minorplanetcenter.net/    ISSN 1523-6714

                                 2022 BS                                 Observations:
     K22B00S* C2022 01 24.91149 08 44 47.47 +30 32 11.7          19.0 RoEB034K88
     K22B00S  C2022 01 24.91296 08 44 46.06 +30 31 39.5          18.8 RoEB034K88
     K22B00S  C2022 01 24.91443 08 44 44.62 +30 31 07.5          18.9 RoEB034K88
     K22B00S  C2022 01 24.91591 08 44 43.23 +30 30 33.7          19.0 RoEB034K88
     K22B00S KC2022 01 24.93908008 44 23.14 +30 22 11.9          19.5 GVEB034B49
     K22B00S KC2022 01 24.94141 08 44 19.17 +30 21 13.3          19.1 RoEB034K88
     K22B00S KC2022 01 24.94285 08 44 17.85 +30 20 40.7          18.9 RoEB034K88
     K22B00S KC2022 01 24.94429 08 44 16.50 +30 20 09.2          19.2 RoEB034K88
     K22B00S KC2022 01 24.94433408 44 18.09 +30 20 15.2          18.9 GVEB034B49
     K22B00S KC2022 01 24.94572 08 44 15.14 +30 19 37.7          18.8 RoEB034K88
     K22B00S KC2022 01 24.95224 08 44 09.06 +30 17 14.1          19.0 RoEB034K88
     K22B00S KC2022 01 24.95368 08 44 07.69 +30 16 42.3          19.0 RoEB034K88
     K22B00S KC2022 01 24.95472808 44 07.54 +30 16 23.3          19.6 GVEB034K63
     K22B00S KC2022 01 24.96052308 44 02.06 +30 14 15.8          19.3 GVEB034K63
     K22B00S KC2022 01 24.96666808 43 56.23 +30 11 59.1          19.1 GVEB034104
     K22B00S KC2022 01 24.97303 08 43 49.39 +30 09 32.3          19.1 RoEB034K88
     K22B00S KC2022 01 24.97782 08 43 44.83 +30 07 45.1          19.1 RoEB034K88
     K22B00S KC2022 01 24.97881008 43 44.75 +30 07 29.7          19.1 GVEB034104
     K22B00S KC2022 01 24.98188708 43 42.79 +30 06 26.7          19.4 GVEB034B49
     K22B00S KC2022 01 24.98250608 43 42.15 +30 06 12.0                VEB034B49
     K22B00S KC2022 01 24.98285908 43 40.91 +30 05 59.3          19.3 GVEB034104
     K22B00S KC2022 01 24.98316608 43 41.51 +30 05 57.3          19.4 GVEB034B49
     K22B00S KC2022 01 24.98439 08 43 40.53 +30 05 24.1          19.7 GXEB034I93
     K22B00S KC2022 01 24.98449108 43 40.25 +30 05 27.6                VEB034B49
     K22B00S KC2022 01 24.98784108 43 37.09 +30 04 12.9                VEB034B49
     K22B00S KC2022 01 24.99037 08 43 34.86 +30 03 11.2          19.9 GXEB034I93
     K22B00S KC2022 01 24.99379608 43 31.43 +30 02 00.5                VEB034B49
     K22B00S KC2022 01 24.99635 08 43 29.21 +30 00 58.3          19.3 GXEB034I93
     K22B00S KC2022 01 25.01508008 43 11.58 +29 54 01.9          19.3 GXEB034958
     K22B00S KC2022 01 25.02073808 43 06.19 +29 51 55.5          19.1 GXEB034958
     K22B00S KC2022 01 25.02361 08 43 01.67 +29 50 41.8          19.1 RoEB034K88
     K22B00S KC2022 01 25.02639408 43 00.87 +29 49 48.5          19.0 GXEB034958
     K22B00S KC2022 01 25.02648 08 42 59.00 +29 49 37.5          19.1 RoEB034K88
     K22B00S KC2022 01 25.02936 08 42 56.26 +29 48 32.8          19.1 RoEB034K88
     K22B00S hC2022 01 25.03818808 42 48.35 +29 45 20.2          19.2 GVEB034L01
     K22B00S hC2022 01 25.03871508 42 47.86 +29 45 08.2          19.4 GVEB034L01
     K22B00S hC2022 01 25.03924208 42 47.36 +29 44 56.2          19.0 GVEB034L01
     K22B00S hC2022 01 25.04366608 42 43.23 +29 43 16.3          18.8 GVEB034L01
     K22B00S hC2022 01 25.04522508 42 41.73 +29 42 41.3          18.9 GVEB034L01
     K22B00S hC2022 01 25.04626308 42 40.77 +29 42 18.3          19.3 GVEB034L01
     K22B00S hC2022 01 25.04704208 42 40.03 +29 42 00.5          19.4 GVEB034L01
     K22B00S hC2022 01 25.04782208 42 39.30 +29 41 42.4          19.0 GVEB034L01
     K22B00S KC2022 01 25.09479708 42 03.97 +29 24 06.9          19.5 GXEB034W34
     K22B00S KC2022 01 25.10088908 41 58.30 +29 21 50.4          19.2 GXEB034W34
     K22B00S KC2022 01 25.10806508 41 51.52 +29 19 10.6          19.8 GXEB034W34
     K22B00S KC2022 01 25.11615408 41 43.87 +29 16 08.9          19.2 GXEB034W34
     K22B00S KC2022 01 25.11972808 41 40.53 +29 14 48.7          19.4 GXEB034W34
     K22B00S KC2022 01 25.12335308 41 37.11 +29 13 27.2          19.6 GXEB034W34
     K22B00S KC2022 01 25.15735108 41 06.99 +29 00 28.4          19.3 GXEB034858
     K22B00S KC2022 01 25.16131908 41 03.29 +28 58 58.7          19.1 GXEB034858
     K22B00S KC2022 01 25.16521208 40 59.66 +28 57 30.8          19.4 GXEB034858
     K22B00S KC2022 01 25.22272 08 40 06.63 +28 35 27.2          18.6 GVEB034U52
     K22B00S KC2022 01 25.22701 08 40 02.55 +28 33 48.2          19.7 GVEB034U52
     K22B00S KC2022 01 25.23130 08 39 58.76 +28 32 11.7          18.7 GVEB034U52
     K22B00S KC2022 01 25.24866 08 39 42.30 +28 25 33.8          20.1 GVEB034U52
     K22B00S KC2022 01 25.25295 08 39 38.27 +28 23 55.4          18.8 GVEB034U52
     K22B00S KC2022 01 25.25724 08 39 34.24 +28 22 16.2          20.2 GVEB034U52
     K22B00S  C2022 01 25.26994908 39 22.14 +28 17 38.1          19.1 GVEB034654
     K22B00S KC2022 01 25.28549 08 39 07.63 +28 11 26.7          19.1 GVEB034U52
     K22B00S KC2022 01 25.28978 08 39 03.65 +28 09 47.3          20.3 GVEB034U52
     K22B00S KC2022 01 25.29408 08 38 59.62 +28 08 08.4          19.5 GVEB034U52
     K22B00S  C2022 01 25.30002508 38 53.66 +28 06 03.8          19.4 GVEB034654
     K22B00S  C2022 01 25.32831708 38 26.80 +27 55 07.0          19.1 GVEB034654
     K22B00S KC2022 01 25.81528508 31 09.25 +24 39 39.1                VEB034204
     K22B00S KC2022 01 25.82119708 31 03.81 +24 37 14.4                VEB034204
     K22B00S KC2022 01 25.82714008 30 58.31 +24 34 48.3          19.1 GVEB034204
     K22B00S KC2022 01 25.85123808 30 36.33 +24 24 56.8          18.7 GVEB034C95
     K22B00S KC2022 01 25.85621508 30 31.74 +24 22 53.9          19.3 GVEB034C95
     K22B00S KC2022 01 25.86100708 30 27.30 +24 20 55.6          18.5 GVEB034C95
     K22B00S KC2022 01 25.90269108 29 48.94 +24 03 47.4          18.9 GVEB034B49
     K22B00S KC2022 01 25.90331008 29 48.39 +24 03 32.1          18.6 GVEB034B49

Observer details:
104 San Marcello Pistoiese.  Observers P. Bacci, M. Maestripieri.  Measurers
    P. Bacci, L. Tesi, G. Fagioli.  0.60-m reflector + CCD.
204 Schiaparelli Observatory.  Observer L. Buzzi.  0.84-m f/3.5 reflector +
    CCD.
654 Table Mountain Observatory, Wrightwood-PHMC.  Observers N. Evans, P. Choi,
    N. Saini, C. Zhai, R. Trahan, M. Shao.  1.0-m reflector + CCD.
858 Tebbutt Observatory, Edgewood.  Observer F. B. Zoltowski.  0.51-m Schmidt-
    Cassegrain + CCD.
958 Observatoire de Dax.  Observers P. Dupouy, J. B. de Vanssay.  Measurer P.
    Dupouy.  0.43-m f/2.7 reflector + CCD.
B49 Paus Observatory, Sabadell.  Observer J. Camarasa.  0.30-m f/4.0 reflector
    + CCD.
C95 SATINO Remote Observatory, Haute Provence.  Observer J. Jahn.  0.60-m
    f/3.2 Newtonian reflector + CCD.
I93 St Pardon de Conques.  Observer F. Losse.  0.40-m f/3.7 reflector + CCD.
K63 G. Pascoli Observatory, Castelvecchio Pascoli.  Observer R. Bacci.  0.41-m
    f/3.21 Newtonian reflector + CCD.
K88 GINOP-KHK, Piszkesteto.  Observer K. Sarneczky.  0.60-m Schmidt + CCD.
L01 Visnjan Observatory, Tican.  Observer K. Korlevic.  1.0-m f/2.9 reflector
    + CCD.
U52 Shasta Valley Observatory, Grenada.  Observer J. E. Rogers.
W34 Squirrel Valley Observatory, Columbus.  Observer R. L. Flynn.  0.36-m
    f/1.9 Schmidt-Cassegrain + CCD.

Orbital elements:
2022 BS                                                  Earth MOID = 0.0789 AU
Epoch 2022 Jan. 21.0 TT = JDT 2459600.5                 Veres                   
M 341.41342              (2000.0)            P               Q                  
n   0.49451873     Peri.  214.78744     -0.85160096     -0.19637828             
a   1.5837291      Node   305.96972     +0.50027226     -0.58135536             
e   0.3583920      Incl.   36.90701     -0.15653582     -0.78959580             
P   1.99           H   24.02          G   0.15           U   9                  
Residuals in seconds of arc
220124 K88  0.5+  0.3-    220124 B49  0.3+  0.3+    220125 858  0.0   0.0
220124 K88  0.2+  0.2-    220124 I93  0.1+  0.1+    220125 858  0.1+  0.1-
220124 K88  0.5-  0.1+    220124 B49  0.0   0.3+    220125 858  0.1+  0.0
220124 K88  0.5-  1.2-    220124 I93  0.1+  0.2+    220125 U52  0.6+  0.9+
220124 B49  0.6-  0.7+    220125 958  0.1+  0.1+    220125 U52  0.5-  0.4-
220124 K88  0.6-  0.3+    220125 958  0.4-  0.2+    220125 U52  2.4+  1.0+
220124 K88  0.1-  0.4-    220125 K88  0.2-  0.1-    220125 U52  0.1-  0.4+
220124 K88  0.0   0.1-    220125 958  0.0   0.2-    220125 U52  0.2-  0.3+
220124 B49  1.8-  0.3-    220125 K88  0.2+  0.1+    220125 U52  0.2-  0.4-
220124 K88  0.2-  0.0     220125 K88  0.2-  0.1+    220125 654  0.1+  0.0
220124 K88  0.8+  0.7+    220125 L01  0.3-  0.7+    220125 U52  0.6-  0.3+
220124 K88  0.7+  0.8+    220125 L01  0.2-  0.6+    220125 U52  0.3+  0.1-
220124 K63  0.2-  0.3-    220125 L01  0.3-  0.4+    220125 U52  0.6+  0.4+
220124 K63  0.2-  0.5+    220125 L01  0.3+  0.1+    220125 654  0.0   0.0
220124 104  0.0   0.2-    220125 L01  0.2-  0.2+    220125 654  0.1-  0.0
220124 K88  0.2+  0.2+    220125 L01  0.1+  0.6+    220125 204  0.1-  0.2-
220124 K88  0.3-  0.5-    220125 L01  0.0   0.4+    220125 204  0.0   0.2+
220124 104  0.1+  0.0     220125 L01  0.1+  0.1-    220125 204  0.2-  0.0
220124 B49  1.0+  1.8+    220125 W34  1.7+  1.2-    220125 C95  0.4-  0.1-
220124 B49  0.4+  0.8+    220125 W34  1.9+  1.3-    220125 C95  0.1-  0.3-
220124 104  0.0   0.4-    220125 W34  1.1+  0.2-    220125 C95  0.1+  0.2-
220124 B49  0.1+  0.8+    220125 W34  0.1+  0.2-    220125 B49  0.2+  0.5+
220124 I93  0.3+  0.1+    220125 W34  0.2+  0.1-    220125 B49  0.7+  0.6+
220124 B49  0.1+  0.5+    220125 W34  0.1+  0.0

Ephemeris:
2022 BS                  a,e,i = 1.58, 0.36, 37                  q = 1.0161
Date    TT    R. A. (2000) Decl.     Delta      r    Elong.  Phase     V
2021 12 26    12 20 38.6 +65 32 21   0.4078  1.1915   110.9    50.5    24.3
...
2022 01 10    11 35 04.2 +62 27 31   0.2348  1.1253   121.9    47.9    22.9
...
2022 01 18    10 22 29.4 +55 10 02   0.1470  1.0946   136.2    38.5    21.6
...
2022 01 24    08 58 36.9 +35 45 47   0.09420 1.0743   161.9    16.6    19.9
2022 01 25    08 43 25.8 +30 00 20   0.08829 1.0711   168.5    10.5    19.6
2022 01 26    08 28 18.5 +23 24 06   0.08374 1.0680   175.4     4.3    19.2
...
2022 02 01    07 06 38.7 -20 08 52   0.09215 1.0512   133.8    42.5    20.6
...
2022 02 09    05 55 31.9 -46 06 50   0.1623  1.0336   102.4    68.8    22.6
...
2022 02 24    04 56 11.9 -57 18 08   0.3191  1.0168    85.7    76.0    24.2

M. P. C. Staff               (C) Copyright 2022 MPC           M.P.E.C. 2022-B34
 Read MPEC 2022-B33
 Read MPEC 2022-B35 MPEC number:  

Enter an MPEC number in one of the following forms:

1997-B01 (the full form)
J97B01 (the packed version of the full form)
B01 (the abbreviated form)

Home
About

Contact
Privacy

The Minor Planet Center is hosted by the Center for Astrophysics | Harvard & Smithsonian.The Minor Planet Center is funded by NASA.
